CCSDS_OMM_VERS = 2.0
CREATION_DATE  = 
ORIGINATOR     = 

OBJECT_NAME    = ERS-1
OBJECT_ID      = 1991-050A
CENTER_NAME    = EARTH
REF_FRAME      = TEME
TIME_SYSTEM    = UTC
MEAN_ELEMENT_THEORY = SGP/SGP4

EPOCH          = 2026-03-09T23:24:32.530464
MEAN_MOTION    = 14.39449577
ECCENTRICITY   = .00316294
INCLINATION    = 98.7882
RA_OF_ASC_NODE = 87.2172
ARG_OF_PERICENTER = 199.5907
MEAN_ANOMALY   = 160.4067

EPHEMERIS_TYPE = 0
CLASSIFICATION_TYPE = U
NORAD_CAT_ID   = 21574
ELEMENT_SET_NO = 999
REV_AT_EPOCH   = 81577
BSTAR          = .14039067E-3
MEAN_MOTION_DOT = .393E-5
MEAN_MOTION_DDOT = 0

CCSDS_OMM_VERS = 2.0
CREATION_DATE  = 
ORIGINATOR     = 

OBJECT_NAME    = ARIANE 40 R/B
OBJECT_ID      = 1991-050F
CENTER_NAME    = EARTH
REF_FRAME      = TEME
TIME_SYSTEM    = UTC
MEAN_ELEMENT_THEORY = SGP/SGP4

EPOCH          = 2026-03-09T17:57:30.236832
MEAN_MOTION    = 14.42893607
ECCENTRICITY   = .00043191
INCLINATION    = 98.2011
RA_OF_ASC_NODE = 120.9824
ARG_OF_PERICENTER = 81.1560
MEAN_ANOMALY   = 279.0120

EPHEMERIS_TYPE = 0
CLASSIFICATION_TYPE = U
NORAD_CAT_ID   = 21610
ELEMENT_SET_NO = 999
REV_AT_EPOCH   = 81900
BSTAR          = .1220285E-3
MEAN_MOTION_DOT = .366E-5
MEAN_MOTION_DDOT = 0

CCSDS_OMM_VERS = 2.0
CREATION_DATE  = 
ORIGINATOR     = 

OBJECT_NAME    = INTERCOSMOS 25
OBJECT_ID      = 1991-086A
CENTER_NAME    = EARTH
REF_FRAME      = TEME
TIME_SYSTEM    = UTC
MEAN_ELEMENT_THEORY = SGP/SGP4

EPOCH          = 2026-03-09T17:46:01.385184
MEAN_MOTION    = 12.11998887
ECCENTRICITY   = .14869778
INCLINATION    = 82.6046
RA_OF_ASC_NODE = 309.9782
ARG_OF_PERICENTER = 116.8223
MEAN_ANOMALY   = 259.2563

EPHEMERIS_TYPE = 0
CLASSIFICATION_TYPE = U
NORAD_CAT_ID   = 21819
ELEMENT_SET_NO = 999
REV_AT_EPOCH   = 49669
BSTAR          = .31680054E-3
MEAN_MOTION_DOT = .1652E-4
MEAN_MOTION_DDOT = 0

CCSDS_OMM_VERS = 2.0
CREATION_DATE  = 
ORIGINATOR     = 

OBJECT_NAME    = SL-8 R/B
OBJECT_ID      = 1992-008B
CENTER_NAME    = EARTH
REF_FRAME      = TEME
TIME_SYSTEM    = UTC
MEAN_ELEMENT_THEORY = SGP/SGP4

EPOCH          = 2026-03-09T22:48:14.800320
MEAN_MOTION    = 13.75969819
ECCENTRICITY   = .00355801
INCLINATION    = 82.9224
RA_OF_ASC_NODE = 267.5846
ARG_OF_PERICENTER = 132.5677
MEAN_ANOMALY   = 339.1190

EPHEMERIS_TYPE = 0
CLASSIFICATION_TYPE = U
NORAD_CAT_ID   = 21876
ELEMENT_SET_NO = 999
REV_AT_EPOCH   = 70945
BSTAR          = -.2532871E-5
MEAN_MOTION_DOT = .13E-6
MEAN_MOTION_DDOT = 0

CCSDS_OMM_VERS = 2.0
CREATION_DATE  = 
ORIGINATOR     = 

OBJECT_NAME    = SL-8 R/B
OBJECT_ID      = 1992-020B
CENTER_NAME    = EARTH
REF_FRAME      = TEME
TIME_SYSTEM    = UTC
MEAN_ELEMENT_THEORY = SGP/SGP4

EPOCH          = 2026-03-09T18:38:25.838880
MEAN_MOTION    = 13.75549462
ECCENTRICITY   = .00276984
INCLINATION    = 82.9337
RA_OF_ASC_NODE = 153.6970
ARG_OF_PERICENTER = 298.5442
MEAN_ANOMALY   = 180.6121

EPHEMERIS_TYPE = 0
CLASSIFICATION_TYPE = U
NORAD_CAT_ID   = 21938
ELEMENT_SET_NO = 999
REV_AT_EPOCH   = 70114
BSTAR          = .60057983E-4
MEAN_MOTION_DOT = .73E-6
MEAN_MOTION_DDOT = 0

CCSDS_OMM_VERS = 2.0
CREATION_DATE  = 
ORIGINATOR     = 

OBJECT_NAME    = USA 81
OBJECT_ID      = 1992-023A
CENTER_NAME    = EARTH
REF_FRAME      = TEME
TIME_SYSTEM    = UTC
MEAN_ELEMENT_THEORY = SGP/SGP4

EPOCH          = 2026-03-09T15:48:40.821984
MEAN_MOTION    = 14.32367980
ECCENTRICITY   = .00024614
INCLINATION    = 85.0085
RA_OF_ASC_NODE = 131.4590
ARG_OF_PERICENTER = 77.6314
MEAN_ANOMALY   = 282.5154

EPHEMERIS_TYPE = 0
CLASSIFICATION_TYPE = U
NORAD_CAT_ID   = 21949
ELEMENT_SET_NO = 999
REV_AT_EPOCH   = 9478
BSTAR          = .6672363E-4
MEAN_MOTION_DOT = .2E-5
MEAN_MOTION_DDOT = 0

CCSDS_OMM_VERS = 2.0
CREATION_DATE  = 
ORIGINATOR     = 

OBJECT_NAME    = COSMOS 2219
OBJECT_ID      = 1992-076A
CENTER_NAME    = EARTH
REF_FRAME      = TEME
TIME_SYSTEM    = UTC
MEAN_ELEMENT_THEORY = SGP/SGP4

EPOCH          = 2026-03-09T22:41:25.069056
MEAN_MOTION    = 14.14092616
ECCENTRICITY   = .0018994
INCLINATION    = 71.0635
RA_OF_ASC_NODE = 17.5326
ARG_OF_PERICENTER = 206.7401
MEAN_ANOMALY   = 153.2744

EPHEMERIS_TYPE = 0
CLASSIFICATION_TYPE = U
NORAD_CAT_ID   = 22219
ELEMENT_SET_NO = 999
REV_AT_EPOCH   = 71841
BSTAR          = .85176457E-4
MEAN_MOTION_DOT = .115E-5
MEAN_MOTION_DDOT = 0

CCSDS_OMM_VERS = 2.0
CREATION_DATE  = 
ORIGINATOR     = 

OBJECT_NAME    = SL-16 R/B
OBJECT_ID      = 1992-076B
CENTER_NAME    = EARTH
REF_FRAME      = TEME
TIME_SYSTEM    = UTC
MEAN_ELEMENT_THEORY = SGP/SGP4

EPOCH          = 2026-03-09T18:38:19.817664
MEAN_MOTION    = 14.16859632
ECCENTRICITY   = .00104648
INCLINATION    = 71.0008
RA_OF_ASC_NODE = 188.1904
ARG_OF_PERICENTER = 96.2463
MEAN_ANOMALY   = 13.0541

EPHEMERIS_TYPE = 0
CLASSIFICATION_TYPE = U
NORAD_CAT_ID   = 22220
ELEMENT_SET_NO = 999
REV_AT_EPOCH   = 72184
BSTAR          = -.62219185E-4
MEAN_MOTION_DOT = -.173E-5
MEAN_MOTION_DDOT = 0

CCSDS_OMM_VERS = 2.0
CREATION_DATE  = 
ORIGINATOR     = 

OBJECT_NAME    = COSMOS 2221
OBJECT_ID      = 1992-080A
CENTER_NAME    = EARTH
REF_FRAME      = TEME
TIME_SYSTEM    = UTC
MEAN_ELEMENT_THEORY = SGP/SGP4

EPOCH          = 2026-03-09T23:19:19.777152
MEAN_MOTION    = 14.96201420
ECCENTRICITY   = .00140703
INCLINATION    = 82.5011
RA_OF_ASC_NODE = 278.8108
ARG_OF_PERICENTER = 186.0623
MEAN_ANOMALY   = 174.0431

EPHEMERIS_TYPE = 0
CLASSIFICATION_TYPE = U
NORAD_CAT_ID   = 22236
ELEMENT_SET_NO = 999
REV_AT_EPOCH   = 78083
BSTAR          = .19500053E-3
MEAN_MOTION_DOT = .2227E-4
MEAN_MOTION_DDOT = 0

CCSDS_OMM_VERS = 2.0
CREATION_DATE  = 
ORIGINATOR     = 

OBJECT_NAME    = SL-16 R/B
OBJECT_ID      = 1992-093B
CENTER_NAME    = EARTH
REF_FRAME      = TEME
TIME_SYSTEM    = UTC
MEAN_ELEMENT_THEORY = SGP/SGP4

EPOCH          = 2026-03-09T22:50:10.404384
MEAN_MOTION    = 14.15447842
ECCENTRICITY   = .0006397
INCLINATION    = 71.0242
RA_OF_ASC_NODE = 3.7160
ARG_OF_PERICENTER = 293.4266
MEAN_ANOMALY   = 66.6184

EPHEMERIS_TYPE = 0
CLASSIFICATION_TYPE = U
NORAD_CAT_ID   = 22285
ELEMENT_SET_NO = 999
REV_AT_EPOCH   = 71319
BSTAR          = -.77720759E-4
MEAN_MOTION_DOT = -.199E-5
MEAN_MOTION_DDOT = 0

CCSDS_OMM_VERS = 2.0
CREATION_DATE  = 
ORIGINATOR     = 

OBJECT_NAME    = COSMOS 2228
OBJECT_ID      = 1992-094A
CENTER_NAME    = EARTH
REF_FRAME      = TEME
TIME_SYSTEM    = UTC
MEAN_ELEMENT_THEORY = SGP/SGP4

EPOCH          = 2026-03-09T22:06:22.986432
MEAN_MOTION    = 14.97191104
ECCENTRICITY   = .00167811
INCLINATION    = 82.5157
RA_OF_ASC_NODE = 237.0886
ARG_OF_PERICENTER = 303.9293
MEAN_ANOMALY   = 56.0333

EPHEMERIS_TYPE = 0
CLASSIFICATION_TYPE = U
NORAD_CAT_ID   = 22286
ELEMENT_SET_NO = 999
REV_AT_EPOCH   = 77609
BSTAR          = .2463535E-3
MEAN_MOTION_DOT = .2881E-4
MEAN_MOTION_DDOT = 0

CCSDS_OMM_VERS = 2.0
CREATION_DATE  = 
ORIGINATOR     = 

OBJECT_NAME    = SL-16 R/B
OBJECT_ID      = 1993-016B
CENTER_NAME    = EARTH
REF_FRAME      = TEME
TIME_SYSTEM    = UTC
MEAN_ELEMENT_THEORY = SGP/SGP4

EPOCH          = 2026-03-09T20:24:52.460352
MEAN_MOTION    = 14.15308750
ECCENTRICITY   = .0011827
INCLINATION    = 71.0073
RA_OF_ASC_NODE = 214.8427
ARG_OF_PERICENTER = 314.0352
MEAN_ANOMALY   = 45.9796

EPHEMERIS_TYPE = 0
CLASSIFICATION_TYPE = U
NORAD_CAT_ID   = 22566
ELEMENT_SET_NO = 999
REV_AT_EPOCH   = 70219
BSTAR          = .80304335E-4
MEAN_MOTION_DOT = .109E-5
MEAN_MOTION_DDOT = 0

