ERS-1                   
1 21574U 91050A   26068.97537651  .00000393  00000+0  14039-3 0  9993
2 21574  98.7882  87.2172 0031629 199.5907 160.4067 14.39449577815776
ARIANE 40 R/B           
1 21610U 91050F   26068.74826663  .00000366  00000+0  12203-3 0  9994
2 21610  98.2011 120.9824 0004319  81.1560 279.0120 14.42893607819000
INTERCOSMOS 25          
1 21819U 91086A   26068.74029381  .00001652  00000+0  31680-3 0  9995
2 21819  82.6046 309.9782 1486977 116.8223 259.2563 12.11998887496692
SL-8 R/B                
1 21876U 92008B   26068.95017130  .00000013  00000+0 -25329-5 0  9991
2 21876  82.9224 267.5846 0035580 132.5677 339.1190 13.75969819709452
SL-8 R/B                
1 21938U 92020B   26068.77668795  .00000073  00000+0  60058-4 0  9995
2 21938  82.9337 153.6970 0027698 298.5442 180.6121 13.75549462701142
USA 81                  
1 21949U 92023A   26068.65880581  .00000200  00000+0  66724-4 0  9994
2 21949  85.0085 131.4590 0002461  77.6314 282.5154 14.32367980 94785
COSMOS 2219             
1 22219U 92076A   26068.94542904  .00000115  00000+0  85176-4 0  9996
2 22219  71.0635  17.5326 0018994 206.7401 153.2744 14.14092616718416
SL-16 R/B               
1 22220U 92076B   26068.77661826 -.00000173  00000+0 -62219-4 0  9993
2 22220  71.0008 188.1904 0010464  96.2463  13.0541 14.16859632721843
COSMOS 2221             
1 22236U 92080A   26068.97175668  .00002227  00000+0  19500-3 0  9995
2 22236  82.5011 278.8108 0014070 186.0623 174.0431 14.96201420780831
SL-16 R/B               
1 22285U 92093B   26068.95150931 -.00000199  00000+0 -77721-4 0  9995
2 22285  71.0242   3.7160 0006397 293.4266  66.6184 14.15447842713193
COSMOS 2228             
1 22286U 92094A   26068.92109938  .00002881  00000+0  24635-3 0  9998
2 22286  82.5157 237.0886 0016781 303.9293  56.0333 14.97191104776092
SL-16 R/B               
1 22566U 93016B   26068.85060718  .00000109  00000+0  80304-4 0  9995
2 22566  71.0073 214.8427 0011827 314.0352  45.9796 14.15308750702199
